ZHONGXING-2C            
1 41021U 15063A   26162.64367288 -.00000307  00000+0  00000+0 0  9993
2 41021   0.2577  90.2038 0007414  96.9449  48.0028  1.00274012 38921
GSAT-15                 
1 41028U 15065A   26162.49909206 -.00000241  00000+0  00000+0 0  9994
2 41028   0.0848 266.0592 0004072 160.0360 106.9192  1.00270441 38745
BADR-7 (ARABSAT-6B)     
1 41029U 15065B   26162.55701274  .00000161  00000+0  00000+0 0  9997
2 41029   0.0325 232.8987 0003534 326.6890 286.8230  1.00271568 38714
LAOSAT 1                
1 41034U 15067A   26162.64826715 -.00000326  00000+0  00000+0 0  9997
2 41034   0.0416 171.6726 0002324 222.9385 227.2742  1.00272298 38803
TELSTAR 12V             
1 41036U 15068A   26162.33504872 -.00000102  00000+0  00000+0 0  9995
2 41036   0.0129 298.1194 0002099 147.2387 279.9574  1.00271917 38567
ELEKTRO-L 2             
1 41105U 15074A   26161.97872950 -.00000103  00000+0  00000+0 0  9994
2 41105   6.6771  70.6006 0000813 270.8986 255.6834  1.00271247 38447
COSMOS 2513             
1 41121U 15075A   26162.14003939 -.00000121  00000+0  00000+0 0  9996
2 41121   0.0789  98.2469 0003262 331.8821 320.0338  1.00270519 38489
EXPRESS-AMU1            
1 41191U 15082A   26162.55900609  .00000172  00000+0  00000+0 0  9991
2 41191   0.0046  68.0710 0002705  14.2371  54.9231  1.00271202 38215
GAOFEN-4                
1 41194U 15083A   26162.67698892 -.00000318  00000+0  00000+0 0  9999
2 41194   0.3416  83.8348 0004246 111.9306  53.6863  1.00271964 38479
BELINTERSAT-1           
1 41238U 16001A   26162.56212610  .00000124  00000+0  00000+0 0  9991
2 41238   0.0528 119.1504 0001963 288.8114 105.8026  1.00270444 38181
IRNSS-1E                
1 41241U 16003A   26160.64908404 -.00000299  00000+0  00000+0 0  9991
2 41241  33.2186  59.8594 0017926 179.3195   4.1979  1.00268584 38002
EUTELSAT 9B             
1 41310U 16005A   26162.33981541  .00000078  00000+0  00000+0 0  9995
2 41310   0.0657  73.4719 0001836 329.0766 348.4586  1.00269730 38053
SES-9                   
1 41380U 16013A   26161.86045840 -.00000328  00000+0  00000+0 0  9990
2 41380   0.0102 331.7299 0002165 112.7086 232.8426  1.00270297 37379
EUTELSAT 65 WEST A      
1 41382U 16014A   26162.53900399 -.00000260  00000+0  00000+0 0  9992
2 41382   0.0526  15.4722 0002112  55.5142 317.7563  1.00271101 37467
IRNSS-1F                
1 41384U 16015A   26161.56019796  .00000175  00000+0  00000+0 0  9993
2 41384   5.3324  96.9306 0016569 186.6446 209.6470  1.00279296 37604
BEIDOU-2 IGSO-6         
1 41434U 16021A   26161.63447332 -.00000157  00000+0  00000+0 0  9996
2 41434  60.2161  38.1061 0057088 231.5348 311.0293  1.00260596 37410
IRNSS-1G                
1 41469U 16027A   26162.57749742 -.00000319  00000+0  00000+0 0  9994
2 41469   5.1843  97.6026 0007527 353.5684 146.2112  1.00268891 37127
JCSAT-2B                
1 41471U 16028A   26162.51109720 -.00000149  00000+0  00000+0 0  9999
2 41471   0.0172 335.3013 0000795 106.9659 155.5876  1.00269879 37070
THAICOM 8               
1 41552U 16031A   26162.64511954 -.00000104  00000+0  00000+0 0  9994
2 41552   0.0728  49.8799 0003549   8.3072 152.5683  1.00269920 36663
INTELSAT 31 (IS-31)     
1 41581U 16035A   26161.96275538 -.00000133  00000+0  00000+0 0  9991
2 41581   0.0140 270.6422 0001063 328.4600 271.7540  1.00269494 36620
BEIDOU-2 G7             
1 41586U 16037A   26162.65927036 -.00000337  00000+0  00000+0 0  9998
2 41586   1.7050  69.2718 0007006   3.5354 175.0308  1.00266974  6831
ABS-2A (MONGOLSAT-1)    
1 41588U 16038A   26162.49018247  .00000000  00000+0  00000+0 0  9994
2 41588   0.0219 327.4863 0001241  49.8044 133.7541  1.00266434 36650
EUTELSAT 117 WEST B     
1 41589U 16038B   26161.95842203  .00000006  00000+0  00000+0 0  9998
2 41589   0.0090 159.3478 0000255 217.2674 110.7257  1.00272883 36605
BRISAT                  
1 41591U 16039A   26161.72618895 -.00000179  00000+0  00000+0 0  9997
2 41591   0.0189 317.7208 0001963 120.3800 232.9113  1.00269871 36544
ECHOSTAR 18             
1 41592U 16039B   26161.75542743 -.00000265  00000+0  00000+0 0  9995
2 41592   0.0023  63.7475 0001308  20.0056  25.9632  1.00271873 36561
MUOS-5                  
1 41622U 16041A   26162.03179456 -.00000096  00000+0  00000+0 0  9993
2 41622   2.2177 301.5295 0197107 260.8816 323.1813  1.00271043 37028
TIANTONG-1 1            
1 41725U 16048A   26162.64434299 -.00000303  00000+0  00000+0 0  9991
2 41725   3.8382  43.3645 0005901  44.3874 145.6092  1.00269204 36218
JCSAT-16                
1 41729U 16050A   26161.72488895 -.00000233  00000+0  00000+0 0  9999
2 41729   0.0147 326.9171 0000895 130.1608 206.9083  1.00271326 36006
USA 270                 
1 41744U 16052A   26159.09509409  .00000095  00000+0  00000+0 0  9995
2 41744   4.1755  77.3049 0008515 337.9683  59.8197  1.00284145 28040
USA 271                 
1 41745U 16052B   26158.79771956 -.00000344  00000+0  00000+0 0  9998
2 41745   4.1460  77.3775 0010783 157.2143  71.4983  1.00262239 27822
INTELSAT 36 (IS-36)     
1 41747U 16053A   26162.56541944 -.00000007  00000+0  00000+0 0  9999
2 41747   0.0131  10.8685 0001830 320.6666 200.4136  1.00270485 35909
INSAT-3DR               
1 41752U 16054A   26162.49519205 -.00000060  00000+0  00000+0 0  9992
2 41752   0.0908  87.1653 0010566 186.8122 238.1118  1.00270275 35763
