OBJECT_NAME,OBJECT_ID,EPOCH,MEAN_MOTION,ECCENTRICITY,INCLINATION,RA_OF_ASC_NODE,ARG_OF_PERICENTER,MEAN_ANOMALY,EPHEMERIS_TYPE,CLASSIFICATION_TYPE,NORAD_CAT_ID,ELEMENT_SET_NO,REV_AT_EPOCH,BSTAR,MEAN_MOTION_DOT,MEAN_MOTION_DDOT
ZHONGXING-2C,2015-063A,2026-06-11T15:26:53.336832,1.00274012,.00074147,0.2577,90.2038,96.9449,48.0028,0,U,41021,999,3892,0,-.307E-5,0
GSAT-15,2015-065A,2026-06-11T11:58:41.553984,1.00270441,.00040726,0.0848,266.0592,160.0360,106.9192,0,U,41028,999,3874,0,-.241E-5,0
BADR-7 (ARABSAT-6B),2015-065B,2026-06-11T13:22:05.900736,1.00271568,.00035343,0.0325,232.8987,326.6890,286.8230,0,U,41029,999,3871,0,.161E-5,0
LAOSAT 1,2015-067A,2026-06-11T15:33:30.281760,1.00272298,.0002324,0.0416,171.6726,222.9385,227.2742,0,U,41034,999,3880,0,-.326E-5,0
TELSTAR 12V,2015-068A,2026-06-11T08:02:28.209408,1.00271917,.00020991,0.0129,298.1194,147.2387,279.9574,0,U,41036,999,3856,0,-.102E-5,0
ELEKTRO-L 2,2015-074A,2026-06-10T23:29:22.228800,1.00271247,.00008138,6.6771,70.6006,270.8986,255.6834,0,U,41105,999,3844,0,-.103E-5,0
COSMOS 2513,2015-075A,2026-06-11T03:21:39.403296,1.00270519,.00032628,0.0789,98.2469,331.8821,320.0338,0,U,41121,999,3848,0,-.121E-5,0
EXPRESS-AMU1,2015-082A,2026-06-11T13:24:58.126176,1.00271202,.00027059,0.0046,68.0710,14.2371,54.9231,0,U,41191,999,3821,0,.172E-5,0
GAOFEN-4,2015-083A,2026-06-11T16:14:51.842688,1.00271964,.00042467,0.3416,83.8348,111.9306,53.6863,0,U,41194,999,3847,0,-.318E-5,0
BELINTERSAT-1,2016-001A,2026-06-11T13:29:27.695040,1.00270444,.00019639,0.0528,119.1504,288.8114,105.8026,0,U,41238,999,3818,0,.124E-5,0
IRNSS-1E,2016-003A,2026-06-09T15:34:40.861056,1.00268584,.00179263,33.2186,59.8594,179.3195,4.1979,0,U,41241,999,3800,0,-.299E-5,0
EUTELSAT 9B,2016-005A,2026-06-11T08:09:20.051424,1.00269730,.00018368,0.0657,73.4719,329.0766,348.4586,0,U,41310,999,3805,0,.78E-6,0
SES-9,2016-013A,2026-06-10T20:39:03.605760,1.00270297,.00021651,0.0102,331.7299,112.7086,232.8426,0,U,41380,999,3737,0,-.328E-5,0
EUTELSAT 65 WEST A,2016-014A,2026-06-11T12:56:09.944736,1.00271101,.00021124,0.0526,15.4722,55.5142,317.7563,0,U,41382,999,3746,0,-.26E-5,0
IRNSS-1F,2016-015A,2026-06-10T13:26:41.103744,1.00279296,.00165691,5.3324,96.9306,186.6446,209.6470,0,U,41384,999,3760,0,.175E-5,0
BEIDOU-2 IGSO-6,2016-021A,2026-06-10T15:13:38.494848,1.00260596,.00570883,60.2161,38.1061,231.5348,311.0293,0,U,41434,999,3741,0,-.157E-5,0
IRNSS-1G,2016-027A,2026-06-11T13:51:35.777088,1.00268891,.00075276,5.1843,97.6026,353.5684,146.2112,0,U,41469,999,3712,0,-.319E-5,0
JCSAT-2B,2016-028A,2026-06-11T12:15:58.798080,1.00269879,.00007957,0.0172,335.3013,106.9659,155.5876,0,U,41471,999,3707,0,-.149E-5,0
THAICOM 8,2016-031A,2026-06-11T15:28:58.328256,1.00269920,.00035496,0.0728,49.8799,8.3072,152.5683,0,U,41552,999,3666,0,-.104E-5,0
INTELSAT 31 (IS-31),2016-035A,2026-06-10T23:06:22.064832,1.00269494,.00010634,0.0140,270.6422,328.4600,271.7540,0,U,41581,999,3662,0,-.133E-5,0
BEIDOU-2 G7,2016-037A,2026-06-11T15:49:20.959104,1.00266974,.0007006,1.7050,69.2718,3.5354,175.0308,0,U,41586,999,683,0,-.337E-5,0
ABS-2A (MONGOLSAT-1),2016-038A,2026-06-11T11:45:51.765408,1.00266434,.00012419,0.0219,327.4863,49.8044,133.7541,0,U,41588,999,3665,0,0,0
EUTELSAT 117 WEST B,2016-038B,2026-06-10T23:00:07.663392,1.00272883,.00002551,0.0090,159.3478,217.2674,110.7257,0,U,41589,999,3660,0,.6E-7,0
BRISAT,2016-039A,2026-06-10T17:25:42.725280,1.00269871,.00019634,0.0189,317.7208,120.3800,232.9113,0,U,41591,999,3654,0,-.179E-5,0
ECHOSTAR 18,2016-039B,2026-06-10T18:07:48.929952,1.00271873,.00013088,0.0023,63.7475,20.0056,25.9632,0,U,41592,999,3656,0,-.265E-5,0
MUOS-5,2016-041A,2026-06-11T00:45:47.049984,1.00271043,.0197107,2.2177,301.5295,260.8816,323.1813,0,U,41622,999,3702,0,-.96E-6,0
TIANTONG-1 1,2016-048A,2026-06-11T15:27:51.234336,1.00269204,.00059011,3.8382,43.3645,44.3874,145.6092,0,U,41725,999,3621,0,-.303E-5,0
JCSAT-16,2016-050A,2026-06-10T17:23:50.405280,1.00271326,.00008953,0.0147,326.9171,130.1608,206.9083,0,U,41729,999,3600,0,-.233E-5,0
USA 270,2016-052A,2026-06-08T02:16:56.129376,1.00284145,.0008515,4.1755,77.3049,337.9683,59.8197,0,U,41744,999,2804,0,.95E-6,0
USA 271,2016-052B,2026-06-07T19:08:42.969984,1.00262239,.0010783,4.1460,77.3775,157.2143,71.4983,0,U,41745,999,2782,0,-.344E-5,0
INTELSAT 36 (IS-36),2016-053A,2026-06-11T13:34:12.239616,1.00270485,.00018308,0.0131,10.8685,320.6666,200.4136,0,U,41747,999,3590,0,-.7E-7,0
INSAT-3DR,2016-054A,2026-06-11T11:53:04.593120,1.00270275,.00105668,0.0908,87.1653,186.8122,238.1118,0,U,41752,999,3576,0,-.6E-6,0
